[{"OBJECT_NAME":"STARLINK-31651","OBJECT_ID":"2024-098C","EPOCH":"2026-03-09T00:26:39.628608","MEAN_MOTION":15.27560792,"ECCENTRICITY":8.768e-5,"INCLINATION":42.998,"RA_OF_ASC_NODE":281.7759,"ARG_OF_PERICENTER":256.3852,"MEAN_ANOMALY":103.6902,"EPHEMERIS_TYPE":0,"CLASSIFICATION_TYPE":"U","NORAD_CAT_ID":59860,"ELEMENT_SET_NO":999,"REV_AT_EPOCH":10174,"BSTAR":0.00014193908,"MEAN_MOTION_DOT":3.644e-5,"MEAN_MOTION_DDOT":0},{"OBJECT_NAME":"YAOGAN-43 01D","OBJECT_ID":"2024-148D","EPOCH":"2026-03-09T10:27:16.254720","MEAN_MOTION":15.28369377,"ECCENTRICITY":0.00025569,"INCLINATION":35.001,"RA_OF_ASC_NODE":61.7102,"ARG_OF_PERICENTER":326.2473,"MEAN_ANOMALY":33.808,"EPHEMERIS_TYPE":0,"CLASSIFICATION_TYPE":"U","NORAD_CAT_ID":60461,"ELEMENT_SET_NO":999,"REV_AT_EPOCH":8700,"BSTAR":0.00037765912,"MEAN_MOTION_DOT":0.00010676,"MEAN_MOTION_DDOT":0}]
